CCSDS_OMM_VERS = 2.0
CREATION_DATE  = 
ORIGINATOR     = 

OBJECT_NAME    = COSMOS 1743
OBJECT_ID      = 1986-034A
CENTER_NAME    = EARTH
REF_FRAME      = TEME
TIME_SYSTEM    = UTC
MEAN_ELEMENT_THEORY = SGP/SGP4

EPOCH          = 2025-10-31T15:30:12.068928
MEAN_MOTION    = 15.49265050
ECCENTRICITY   = .0008918
INCLINATION    = 82.5387
RA_OF_ASC_NODE = 208.2089
ARG_OF_PERICENTER = 53.6487
MEAN_ANOMALY   = 306.5586

EPHEMERIS_TYPE = 0
CLASSIFICATION_TYPE = U
NORAD_CAT_ID   = 16719
ELEMENT_SET_NO = 999
REV_AT_EPOCH   = 16021
BSTAR          = .62323E-3
MEAN_MOTION_DOT = .34206E-3
MEAN_MOTION_DDOT = 0

CCSDS_OMM_VERS = 2.0
CREATION_DATE  = 
ORIGINATOR     = 

OBJECT_NAME    = SL-14 R/B
OBJECT_ID      = 1986-046B
CENTER_NAME    = EARTH
REF_FRAME      = TEME
TIME_SYSTEM    = UTC
MEAN_ELEMENT_THEORY = SGP/SGP4

EPOCH          = 2025-10-31T16:20:49.682976
MEAN_MOTION    = 14.85421602
ECCENTRICITY   = .0021803
INCLINATION    = 82.4844
RA_OF_ASC_NODE = 202.0272
ARG_OF_PERICENTER = 296.5374
MEAN_ANOMALY   = 63.3607

EPHEMERIS_TYPE = 0
CLASSIFICATION_TYPE = U
NORAD_CAT_ID   = 16792
ELEMENT_SET_NO = 999
REV_AT_EPOCH   = 10725
BSTAR          = .77468E-4
MEAN_MOTION_DOT = .694E-5
MEAN_MOTION_DDOT = 0

CCSDS_OMM_VERS = 2.0
CREATION_DATE  = 
ORIGINATOR     = 

OBJECT_NAME    = SL-14 R/B
OBJECT_ID      = 1986-055B
CENTER_NAME    = EARTH
REF_FRAME      = TEME
TIME_SYSTEM    = UTC
MEAN_ELEMENT_THEORY = SGP/SGP4

EPOCH          = 2025-10-31T15:13:15.496032
MEAN_MOTION    = 14.85458844
ECCENTRICITY   = .002017
INCLINATION    = 82.5201
RA_OF_ASC_NODE = 247.9315
ARG_OF_PERICENTER = 42.7855
MEAN_ANOMALY   = 130.2775

EPHEMERIS_TYPE = 0
CLASSIFICATION_TYPE = U
NORAD_CAT_ID   = 16882
ELEMENT_SET_NO = 999
REV_AT_EPOCH   = 10020
BSTAR          = .96425E-4
MEAN_MOTION_DOT = .858E-5
MEAN_MOTION_DDOT = 0

CCSDS_OMM_VERS = 2.0
CREATION_DATE  = 
ORIGINATOR     = 

OBJECT_NAME    = AJISAI (EGS)
OBJECT_ID      = 1986-061A
CENTER_NAME    = EARTH
REF_FRAME      = TEME
TIME_SYSTEM    = UTC
MEAN_ELEMENT_THEORY = SGP/SGP4

EPOCH          = 2025-10-31T16:03:19.764000
MEAN_MOTION    = 12.44514080
ECCENTRICITY   = .0011135
INCLINATION    = 50.0063
RA_OF_ASC_NODE = 130.0825
ARG_OF_PERICENTER = 319.6047
MEAN_ANOMALY   = 140.3182

EPHEMERIS_TYPE = 0
CLASSIFICATION_TYPE = U
NORAD_CAT_ID   = 16908
ELEMENT_SET_NO = 999
REV_AT_EPOCH   = 45193
BSTAR          = .10542E-3
MEAN_MOTION_DOT = -.82E-6
MEAN_MOTION_DDOT = 0

CCSDS_OMM_VERS = 2.0
CREATION_DATE  = 
ORIGINATOR     = 

OBJECT_NAME    = COSMOS 1812
OBJECT_ID      = 1987-003A
CENTER_NAME    = EARTH
REF_FRAME      = TEME
TIME_SYSTEM    = UTC
MEAN_ELEMENT_THEORY = SGP/SGP4

EPOCH          = 2025-10-31T13:35:36.927168
MEAN_MOTION    = 15.67400777
ECCENTRICITY   = .0003433
INCLINATION    = 82.4911
RA_OF_ASC_NODE = 337.3741
ARG_OF_PERICENTER = 174.6246
MEAN_ANOMALY   = 185.5052

EPHEMERIS_TYPE = 0
CLASSIFICATION_TYPE = U
NORAD_CAT_ID   = 17295
ELEMENT_SET_NO = 999
REV_AT_EPOCH   = 12403
BSTAR          = .64276E-3
MEAN_MOTION_DOT = .6984E-3
MEAN_MOTION_DDOT = 0

CCSDS_OMM_VERS = 2.0
CREATION_DATE  = 
ORIGINATOR     = 

OBJECT_NAME    = SL-14 R/B
OBJECT_ID      = 1987-024B
CENTER_NAME    = EARTH
REF_FRAME      = TEME
TIME_SYSTEM    = UTC
MEAN_ELEMENT_THEORY = SGP/SGP4

EPOCH          = 2025-10-31T05:20:36.399264
MEAN_MOTION    = 14.85959079
ECCENTRICITY   = .0017663
INCLINATION    = 82.5305
RA_OF_ASC_NODE = 214.3863
ARG_OF_PERICENTER = 334.3903
MEAN_ANOMALY   = 25.6436

EPHEMERIS_TYPE = 0
CLASSIFICATION_TYPE = U
NORAD_CAT_ID   = 17567
ELEMENT_SET_NO = 999
REV_AT_EPOCH   = 6890
BSTAR          = .84242E-4
MEAN_MOTION_DOT = .761E-5
MEAN_MOTION_DDOT = 0

CCSDS_OMM_VERS = 2.0
CREATION_DATE  = 
ORIGINATOR     = 

OBJECT_NAME    = COSMOS 1833
OBJECT_ID      = 1987-027A
CENTER_NAME    = EARTH
REF_FRAME      = TEME
TIME_SYSTEM    = UTC
MEAN_ELEMENT_THEORY = SGP/SGP4

EPOCH          = 2025-10-31T12:37:45.594624
MEAN_MOTION    = 14.13025095
ECCENTRICITY   = .0020579
INCLINATION    = 70.9164
RA_OF_ASC_NODE = 237.5137
ARG_OF_PERICENTER = 31.7013
MEAN_ANOMALY   = 328.5342

EPHEMERIS_TYPE = 0
CLASSIFICATION_TYPE = U
NORAD_CAT_ID   = 17589
ELEMENT_SET_NO = 999
REV_AT_EPOCH   = 99206
BSTAR          = -.14136E-3
MEAN_MOTION_DOT = -.312E-5
MEAN_MOTION_DDOT = 0

CCSDS_OMM_VERS = 2.0
CREATION_DATE  = 
ORIGINATOR     = 

OBJECT_NAME    = SL-16 R/B
OBJECT_ID      = 1987-027B
CENTER_NAME    = EARTH
REF_FRAME      = TEME
TIME_SYSTEM    = UTC
MEAN_ELEMENT_THEORY = SGP/SGP4

EPOCH          = 2025-10-31T15:54:44.095968
MEAN_MOTION    = 14.17142154
ECCENTRICITY   = .0006789
INCLINATION    = 71.0022
RA_OF_ASC_NODE = 188.3800
ARG_OF_PERICENTER = 303.9804
MEAN_ANOMALY   = 56.0674

EPHEMERIS_TYPE = 0
CLASSIFICATION_TYPE = U
NORAD_CAT_ID   = 17590
ELEMENT_SET_NO = 999
REV_AT_EPOCH   = 99710
BSTAR          = .40736E-4
MEAN_MOTION_DOT = .34E-6
MEAN_MOTION_DDOT = 0

CCSDS_OMM_VERS = 2.0
CREATION_DATE  = 
ORIGINATOR     = 

OBJECT_NAME    = SL-14 R/B
OBJECT_ID      = 1987-038B
CENTER_NAME    = EARTH
REF_FRAME      = TEME
TIME_SYSTEM    = UTC
MEAN_ELEMENT_THEORY = SGP/SGP4

EPOCH          = 2025-10-31T10:05:36.519648
MEAN_MOTION    = 14.85193975
ECCENTRICITY   = .0018212
INCLINATION    = 82.5024
RA_OF_ASC_NODE = 58.5499
ARG_OF_PERICENTER = 229.0552
MEAN_ANOMALY   = 130.9088

EPHEMERIS_TYPE = 0
CLASSIFICATION_TYPE = U
NORAD_CAT_ID   = 17912
ELEMENT_SET_NO = 999
REV_AT_EPOCH   = 6004
BSTAR          = .92323E-4
MEAN_MOTION_DOT = .817E-5
MEAN_MOTION_DDOT = 0

CCSDS_OMM_VERS = 2.0
CREATION_DATE  = 
ORIGINATOR     = 

OBJECT_NAME    = COSMOS 1844
OBJECT_ID      = 1987-041A
CENTER_NAME    = EARTH
REF_FRAME      = TEME
TIME_SYSTEM    = UTC
MEAN_ELEMENT_THEORY = SGP/SGP4

EPOCH          = 2025-10-31T09:57:49.901760
MEAN_MOTION    = 14.14508983
ECCENTRICITY   = .0032427
INCLINATION    = 70.8975
RA_OF_ASC_NODE = 306.8417
ARG_OF_PERICENTER = 219.6660
MEAN_ANOMALY   = 140.2090

EPHEMERIS_TYPE = 0
CLASSIFICATION_TYPE = U
NORAD_CAT_ID   = 17973
ELEMENT_SET_NO = 999
REV_AT_EPOCH   = 98530
BSTAR          = .19682E-3
MEAN_MOTION_DOT = .331E-5
MEAN_MOTION_DDOT = 0

CCSDS_OMM_VERS = 2.0
CREATION_DATE  = 
ORIGINATOR     = 

OBJECT_NAME    = SL-14 R/B
OBJECT_ID      = 1987-055B
CENTER_NAME    = EARTH
REF_FRAME      = TEME
TIME_SYSTEM    = UTC
MEAN_ELEMENT_THEORY = SGP/SGP4

EPOCH          = 2025-10-31T14:55:39.940320
MEAN_MOTION    = 14.85451948
ECCENTRICITY   = .0022216
INCLINATION    = 82.4960
RA_OF_ASC_NODE = 110.6809
ARG_OF_PERICENTER = 81.0012
MEAN_ANOMALY   = 279.3717

EPHEMERIS_TYPE = 0
CLASSIFICATION_TYPE = U
NORAD_CAT_ID   = 18153
ELEMENT_SET_NO = 999
REV_AT_EPOCH   = 5077
BSTAR          = .83882E-4
MEAN_MOTION_DOT = .751E-5
MEAN_MOTION_DDOT = 0

CCSDS_OMM_VERS = 2.0
CREATION_DATE  = 
ORIGINATOR     = 

OBJECT_NAME    = COSMOS 1867
OBJECT_ID      = 1987-060A
CENTER_NAME    = EARTH
REF_FRAME      = TEME
TIME_SYSTEM    = UTC
MEAN_ELEMENT_THEORY = SGP/SGP4

EPOCH          = 2025-10-31T11:25:00.566400
MEAN_MOTION    = 14.31475361
ECCENTRICITY   = .0013765
INCLINATION    = 65.0103
RA_OF_ASC_NODE = 308.5586
ARG_OF_PERICENTER = 266.9172
MEAN_ANOMALY   = 93.0337

EPHEMERIS_TYPE = 0
CLASSIFICATION_TYPE = U
NORAD_CAT_ID   = 18187
ELEMENT_SET_NO = 999
REV_AT_EPOCH   = 144
BSTAR          = .41058E-4
MEAN_MOTION_DOT = .9E-7
MEAN_MOTION_DDOT = 0

