COSMOS 1743             
1 16719U 86034A   25304.64597302  .00034206  00000+0  62323-3 0  9998
2 16719  82.5387 208.2089 0008918  53.6487 306.5586 15.49265050160217
SL-14 R/B               
1 16792U 86046B   25304.68113059  .00000694  00000+0  77468-4 0  9990
2 16792  82.4844 202.0272 0021803 296.5374  63.3607 14.85421602107255
SL-14 R/B               
1 16882U 86055B   25304.63420713  .00000858  00000+0  96425-4 0  9999
2 16882  82.5201 247.9315 0020170  42.7855 130.2775 14.85458844100206
AJISAI (EGS)            
1 16908U 86061A   25304.66897875 -.00000082  00000+0  10542-3 0  9990
2 16908  50.0063 130.0825 0011135 319.6047 140.3182 12.44514080451930
COSMOS 1812             
1 17295U 87003A   25304.56639962  .00069840  00000+0  64276-3 0  9996
2 17295  82.4911 337.3741 0003433 174.6246 185.5052 15.67400777124032
SL-14 R/B               
1 17567U 87024B   25304.22264351  .00000761  00000+0  84242-4 0  9993
2 17567  82.5305 214.3863 0017663 334.3903  25.6436 14.85959079 68902
COSMOS 1833             
1 17589U 87027A   25304.52622216 -.00000312  00000+0 -14136-3 0  9999
2 17589  70.9164 237.5137 0020579  31.7013 328.5342 14.13025095992068
SL-16 R/B               
1 17590U 87027B   25304.66301037  .00000034  00000+0  40736-4 0  9996
2 17590  71.0022 188.3800 0006789 303.9804  56.0674 14.17142154997105
SL-14 R/B               
1 17912U 87038B   25304.42056157  .00000817  00000+0  92323-4 0  9998
2 17912  82.5024  58.5499 0018212 229.0552 130.9088 14.85193975 60043
COSMOS 1844             
1 17973U 87041A   25304.41516090  .00000331  00000+0  19682-3 0  9992
2 17973  70.8975 306.8417 0032427 219.6660 140.2090 14.14508983985306
SL-14 R/B               
1 18153U 87055B   25304.62199005  .00000751  00000+0  83882-4 0  9994
2 18153  82.4960 110.6809 0022216  81.0012 279.3717 14.85451948 50773
COSMOS 1867             
1 18187U 87060A   25304.47570100  .00000009  00000+0  41058-4 0  9994
2 18187  65.0103 308.5586 0013765 266.9172  93.0337 14.31475361  1441
